0 FENGYUN 1C DEB
1 37598U 99025EKS 13281.21999836  .00001634  00000-0  90368-3 0   410
2 37598 098.9759 268.9192 0019069 061.6067 298.7226 14.12694748245664
0 FENGYUN 1C DEB
1 37598U 99025EKS 13282.21155646  .00001670  00000-0  92306-3 0   429
2 37598 098.9761 269.9197 0020417 050.8323 309.4498 14.12698720245808
0 FENGYUN 1C DEB
1 37598U 99025EKS 13284.19467482  .00001817  00000-0  10024-2 0   432
2 37598 098.9781 271.9138 0017684 032.5790 327.7619 14.12710159246085
0 FENGYUN 1C DEB
1 37598U 99025EKS 13287.16929011  .00001868  00000-0  10293-2 0   448
2 37598 098.9760 274.8854 0017854 025.2986 334.9279 14.12723153246501
0 FENGYUN 1C DEB
1 37598U 99025EKS 13288.23165124  .00001903  00000-0  10485-2 0   458
2 37598 098.9792 275.9607 0017965 034.7721 325.4749 14.12727970246653
0 FENGYUN 1C DEB
1 37598U 99025EKS 13291.20624742  .00002045  00000-0  11249-2 0   463
2 37598 098.9799 278.9459 0016120 016.2356 344.0501 14.12744767247072
0 FENGYUN 1C DEB
1 37598U 99025EKS 13292.19775034  .00002081  00000-0  11435-2 0   471
2 37598 098.9836 279.9534 0017387 019.5387 340.6454 14.12749601247212
0 FENGYUN 1C DEB
1 37598U 99025EKS 13293.18927260  .00002177  00000-0  11949-2 0   488
2 37598 098.9779 280.9231 0018391 006.5928 353.6087 14.12756932247353
